STARLINK-36957          
1 67989U 26039D   26064.83334490 -.01505973  66493-3 -35538-2 0  9990
2 67989  42.9980  78.8262 0001760 264.4691   9.0588 15.95975214  2259
STARLINK-36951          
1 67990U 26039E   26064.58335648 -.01467533  63963-3 -33045-2 0  9999
2 67990  42.9978  80.3885 0001866 269.8955   7.0305 15.96823853  2219
STARLINK-36941          
1 67991U 26039F   26064.83334490 -.01484160  64911-3 -34509-2 0  9997
2 67991  42.9980  78.8177 0001793 261.2248  15.6565 15.96242417  2257
STARLINK-36950          
1 67992U 26039G   26064.83334490 -.01476231  64366-3 -34066-2 0  9990
2 67992  42.9980  78.8131 0001802 262.1936  16.5376 15.96379009  2251
STARLINK-36975          
1 67993U 26039H   26064.83334490 -.01483086  65011-3 -33959-2 0  9995
2 67993  42.9980  78.8087 0001811 264.5479  15.9039 15.96521700  2256
STARLINK-36993          
1 67994U 26039J   26064.83334490 -.01476567  64579-3 -33552-2 0  9999
2 67994  42.9980  78.8042 0001836 260.2266  22.1386 15.96659901  2252
STARLINK-36968          
1 67995U 26039K   26064.83334490 -.01471130  64324-3 -32927-2 0  9994
2 67995  42.9981  78.7912 0001862 264.4408  22.9601 15.96933483  2250
STARLINK-36979          
1 67996U 26039L   26064.83334490 -.01493246  66025-3 -33664-2 0  9996
2 67996  42.9979  78.7955 0001802 262.4975  23.1345 15.96806470  2259
STARLINK-36994          
1 67997U 26039M   26064.83334490 -.01497004  66624-3 -32964-2 0  9990
2 67997  42.9980  78.7811 0001810 265.3807  25.9180 15.97232720  2257
STARLINK-36988          
1 67998U 26039N   26064.83334490 -.01492140  66132-3 -33106-2 0  9990
2 67998  42.9981  78.7858 0001892 262.0914  27.4067 15.97094997  2256
STARLINK-36926          
1 67999U 26039P   26064.83334490 -.01487140  65915-3 -32490-2 0  9998
2 67999  42.9981  78.7767 0001993 264.1428  29.0392 15.97372037  2254
STARLINK-36931          
1 68000U 26039Q   26064.83334490 -.01483667  65715-3 -32195-2 0  9992
2 68000  42.9982  78.7730 0001957 263.9829  30.6673 15.97493757  2254
STARLINK-36903          
1 68001U 26039R   26064.83334490 -.01460961  63967-3 -31467-2 0  9993
2 68001  42.9983  78.7681 0001869 262.4772  34.1139 15.97624707  2251
STARLINK-36898          
1 68002U 26039S   26064.83334490 -.01455455  63703-3 -30881-2 0  9993
2 68002  42.9982  78.7586 0001907 262.4918  37.7479 15.97893004  2254
STARLINK-36862          
1 68003U 26039T   26064.83334490 -.01458947  64160-3 -30506-2 0  9995
2 68003  42.9982  78.7500 0001867 262.9973  40.5973 15.98155099  2259
STARLINK-36888          
1 68004U 26039U   26064.83334490 -.01459854  63964-3 -31217-2 0  9995
2 68004  42.9984  78.7638 0001841 262.0450  36.3158 15.97754253  2251
