[{"OBJECT_NAME":"STARLINK-36957","OBJECT_ID":"2026-039D","EPOCH":"2026-03-05T20:00:00.999360","MEAN_MOTION":15.95975214,"ECCENTRICITY":0.000176,"INCLINATION":42.998,"RA_OF_ASC_NODE":78.8262,"ARG_OF_PERICENTER":264.4691,"MEAN_ANOMALY":9.0588,"EPHEMERIS_TYPE":0,"CLASSIFICATION_TYPE":"U","NORAD_CAT_ID":67989,"ELEMENT_SET_NO":999,"REV_AT_EPOCH":225,"BSTAR":-0.0035538,"MEAN_MOTION_DOT":-0.01505973,"MEAN_MOTION_DDOT":0.00066493},{"OBJECT_NAME":"STARLINK-36951","OBJECT_ID":"2026-039E","EPOCH":"2026-03-05T14:00:01.999872","MEAN_MOTION":15.96823853,"ECCENTRICITY":0.00018664,"INCLINATION":42.9978,"RA_OF_ASC_NODE":80.3885,"ARG_OF_PERICENTER":269.8955,"MEAN_ANOMALY":7.0305,"EPHEMERIS_TYPE":0,"CLASSIFICATION_TYPE":"U","NORAD_CAT_ID":67990,"ELEMENT_SET_NO":999,"REV_AT_EPOCH":221,"BSTAR":-0.0033044543,"MEAN_MOTION_DOT":-0.01467533,"MEAN_MOTION_DDOT":0.00063962601},{"OBJECT_NAME":"STARLINK-36941","OBJECT_ID":"2026-039F","EPOCH":"2026-03-05T20:00:00.999360","MEAN_MOTION":15.96242417,"ECCENTRICITY":0.0001793,"INCLINATION":42.998,"RA_OF_ASC_NODE":78.8177,"ARG_OF_PERICENTER":261.2248,"MEAN_ANOMALY":15.6565,"EPHEMERIS_TYPE":0,"CLASSIFICATION_TYPE":"U","NORAD_CAT_ID":67991,"ELEMENT_SET_NO":999,"REV_AT_EPOCH":225,"BSTAR":-0.0034509,"MEAN_MOTION_DOT":-0.0148416,"MEAN_MOTION_DDOT":0.00064911},{"OBJECT_NAME":"STARLINK-36950","OBJECT_ID":"2026-039G","EPOCH":"2026-03-05T20:00:00.999360","MEAN_MOTION":15.96379009,"ECCENTRICITY":0.0001802,"INCLINATION":42.998,"RA_OF_ASC_NODE":78.8131,"ARG_OF_PERICENTER":262.1936,"MEAN_ANOMALY":16.5376,"EPHEMERIS_TYPE":0,"CLASSIFICATION_TYPE":"U","NORAD_CAT_ID":67992,"ELEMENT_SET_NO":999,"REV_AT_EPOCH":225,"BSTAR":-0.0034066,"MEAN_MOTION_DOT":-0.01476231,"MEAN_MOTION_DDOT":0.00064366},{"OBJECT_NAME":"STARLINK-36975","OBJECT_ID":"2026-039H","EPOCH":"2026-03-05T20:00:00.999360","MEAN_MOTION":15.965217,"ECCENTRICITY":0.0001811,"INCLINATION":42.998,"RA_OF_ASC_NODE":78.8087,"ARG_OF_PERICENTER":264.5479,"MEAN_ANOMALY":15.9039,"EPHEMERIS_TYPE":0,"CLASSIFICATION_TYPE":"U","NORAD_CAT_ID":67993,"ELEMENT_SET_NO":999,"REV_AT_EPOCH":225,"BSTAR":-0.0033959,"MEAN_MOTION_DOT":-0.01483086,"MEAN_MOTION_DDOT":0.00065011},{"OBJECT_NAME":"STARLINK-36993","OBJECT_ID":"2026-039J","EPOCH":"2026-03-05T20:00:00.999360","MEAN_MOTION":15.96659901,"ECCENTRICITY":0.0001836,"INCLINATION":42.998,"RA_OF_ASC_NODE":78.8042,"ARG_OF_PERICENTER":260.2266,"MEAN_ANOMALY":22.1386,"EPHEMERIS_TYPE":0,"CLASSIFICATION_TYPE":"U","NORAD_CAT_ID":67994,"ELEMENT_SET_NO":999,"REV_AT_EPOCH":225,"BSTAR":-0.0033552,"MEAN_MOTION_DOT":-0.01476567,"MEAN_MOTION_DDOT":0.00064579},{"OBJECT_NAME":"STARLINK-36968","OBJECT_ID":"2026-039K","EPOCH":"2026-03-05T20:00:00.999360","MEAN_MOTION":15.96933483,"ECCENTRICITY":0.0001862,"INCLINATION":42.9981,"RA_OF_ASC_NODE":78.7912,"ARG_OF_PERICENTER":264.4408,"MEAN_ANOMALY":22.9601,"EPHEMERIS_TYPE":0,"CLASSIFICATION_TYPE":"U","NORAD_CAT_ID":67995,"ELEMENT_SET_NO":999,"REV_AT_EPOCH":225,"BSTAR":-0.0032927,"MEAN_MOTION_DOT":-0.0147113,"MEAN_MOTION_DDOT":0.00064324},{"OBJECT_NAME":"STARLINK-36979","OBJECT_ID":"2026-039L","EPOCH":"2026-03-05T20:00:00.999360","MEAN_MOTION":15.9680647,"ECCENTRICITY":0.0001802,"INCLINATION":42.9979,"RA_OF_ASC_NODE":78.7955,"ARG_OF_PERICENTER":262.4975,"MEAN_ANOMALY":23.1345,"EPHEMERIS_TYPE":0,"CLASSIFICATION_TYPE":"U","NORAD_CAT_ID":67996,"ELEMENT_SET_NO":999,"REV_AT_EPOCH":225,"BSTAR":-0.0033664,"MEAN_MOTION_DOT":-0.01493246,"MEAN_MOTION_DDOT":0.00066025},{"OBJECT_NAME":"STARLINK-36994","OBJECT_ID":"2026-039M","EPOCH":"2026-03-05T20:00:00.999360","MEAN_MOTION":15.9723272,"ECCENTRICITY":0.000181,"INCLINATION":42.998,"RA_OF_ASC_NODE":78.7811,"ARG_OF_PERICENTER":265.3807,"MEAN_ANOMALY":25.918,"EPHEMERIS_TYPE":0,"CLASSIFICATION_TYPE":"U","NORAD_CAT_ID":67997,"ELEMENT_SET_NO":999,"REV_AT_EPOCH":225,"BSTAR":-0.0032964,"MEAN_MOTION_DOT":-0.01497004,"MEAN_MOTION_DDOT":0.00066624},{"OBJECT_NAME":"STARLINK-36988","OBJECT_ID":"2026-039N","EPOCH":"2026-03-05T20:00:00.999360","MEAN_MOTION":15.97094997,"ECCENTRICITY":0.0001892,"INCLINATION":42.9981,"RA_OF_ASC_NODE":78.7858,"ARG_OF_PERICENTER":262.0914,"MEAN_ANOMALY":27.4067,"EPHEMERIS_TYPE":0,"CLASSIFICATION_TYPE":"U","NORAD_CAT_ID":67998,"ELEMENT_SET_NO":999,"REV_AT_EPOCH":225,"BSTAR":-0.0033106,"MEAN_MOTION_DOT":-0.0149214,"MEAN_MOTION_DDOT":0.00066132},{"OBJECT_NAME":"STARLINK-36926","OBJECT_ID":"2026-039P","EPOCH":"2026-03-05T20:00:00.999360","MEAN_MOTION":15.97372037,"ECCENTRICITY":0.0001993,"INCLINATION":42.9981,"RA_OF_ASC_NODE":78.7767,"ARG_OF_PERICENTER":264.1428,"MEAN_ANOMALY":29.0392,"EPHEMERIS_TYPE":0,"CLASSIFICATION_TYPE":"U","NORAD_CAT_ID":67999,"ELEMENT_SET_NO":999,"REV_AT_EPOCH":225,"BSTAR":-0.003249,"MEAN_MOTION_DOT":-0.0148714,"MEAN_MOTION_DDOT":0.00065915},{"OBJECT_NAME":"STARLINK-36931","OBJECT_ID":"2026-039Q","EPOCH":"2026-03-05T20:00:00.999360","MEAN_MOTION":15.97493757,"ECCENTRICITY":0.0001957,"INCLINATION":42.9982,"RA_OF_ASC_NODE":78.773,"ARG_OF_PERICENTER":263.9829,"MEAN_ANOMALY":30.6673,"EPHEMERIS_TYPE":0,"CLASSIFICATION_TYPE":"U","NORAD_CAT_ID":68000,"ELEMENT_SET_NO":999,"REV_AT_EPOCH":225,"BSTAR":-0.0032195,"MEAN_MOTION_DOT":-0.01483667,"MEAN_MOTION_DDOT":0.00065715},{"OBJECT_NAME":"STARLINK-36903","OBJECT_ID":"2026-039R","EPOCH":"2026-03-05T20:00:00.999360","MEAN_MOTION":15.97624707,"ECCENTRICITY":0.0001869,"INCLINATION":42.9983,"RA_OF_ASC_NODE":78.7681,"ARG_OF_PERICENTER":262.4772,"MEAN_ANOMALY":34.1139,"EPHEMERIS_TYPE":0,"CLASSIFICATION_TYPE":"U","NORAD_CAT_ID":68001,"ELEMENT_SET_NO":999,"REV_AT_EPOCH":225,"BSTAR":-0.0031467,"MEAN_MOTION_DOT":-0.01460961,"MEAN_MOTION_DDOT":0.00063967},{"OBJECT_NAME":"STARLINK-36898","OBJECT_ID":"2026-039S","EPOCH":"2026-03-05T20:00:00.999360","MEAN_MOTION":15.97893004,"ECCENTRICITY":0.0001907,"INCLINATION":42.9982,"RA_OF_ASC_NODE":78.7586,"ARG_OF_PERICENTER":262.4918,"MEAN_ANOMALY":37.7479,"EPHEMERIS_TYPE":0,"CLASSIFICATION_TYPE":"U","NORAD_CAT_ID":68002,"ELEMENT_SET_NO":999,"REV_AT_EPOCH":225,"BSTAR":-0.0030881,"MEAN_MOTION_DOT":-0.01455455,"MEAN_MOTION_DDOT":0.00063703},{"OBJECT_NAME":"STARLINK-36862","OBJECT_ID":"2026-039T","EPOCH":"2026-03-05T20:00:00.999360","MEAN_MOTION":15.98155099,"ECCENTRICITY":0.0001867,"INCLINATION":42.9982,"RA_OF_ASC_NODE":78.75,"ARG_OF_PERICENTER":262.9973,"MEAN_ANOMALY":40.5973,"EPHEMERIS_TYPE":0,"CLASSIFICATION_TYPE":"U","NORAD_CAT_ID":68003,"ELEMENT_SET_NO":999,"REV_AT_EPOCH":225,"BSTAR":-0.0030506,"MEAN_MOTION_DOT":-0.01458947,"MEAN_MOTION_DDOT":0.0006416},{"OBJECT_NAME":"STARLINK-36888","OBJECT_ID":"2026-039U","EPOCH":"2026-03-05T20:00:00.999360","MEAN_MOTION":15.97754253,"ECCENTRICITY":0.0001841,"INCLINATION":42.9984,"RA_OF_ASC_NODE":78.7638,"ARG_OF_PERICENTER":262.045,"MEAN_ANOMALY":36.3158,"EPHEMERIS_TYPE":0,"CLASSIFICATION_TYPE":"U","NORAD_CAT_ID":68004,"ELEMENT_SET_NO":999,"REV_AT_EPOCH":225,"BSTAR":-0.0031217,"MEAN_MOTION_DOT":-0.01459854,"MEAN_MOTION_DDOT":0.00063964}]
